{
  "type": "FeatureCollection",
  "features": [
    {
      "type": "Feature",
      "properties": {
        "norad_id": 38208,
        "name": "COSMOS 2251 DEB",
        "group": "cosmos-2251-debris",
        "lat": -53.748588019610565,
        "lon": -92.20658891757542,
        "alt_km": 623.0861094099082,
        "timestamp": "2025-12-19T20:43:00.484054+00:00",
        "meta_object_name": "COSMOS 2251 DEB",
        "meta_object_id": "1993-036BSY",
        "meta_epoch": "2025-12-16T00:13:39.722592",
        "meta_mean_motion": 14.84023361,
        "meta_eccentricity": 0.00017369,
        "meta_inclination": 74.0064,
        "meta_ra_of_asc_node": 72.4172,
        "meta_arg_of_pericenter": 150.2716,
        "meta_mean_anomaly": 26.1687,
        "meta_ephemeris_type": 0,
        "meta_classification_type": "U",
        "meta_norad_cat_id": 38208,
        "meta_element_set_no": 999,
        "meta_rev_at_epoch": 71207,
        "meta_bstar": 0.0016436813,
        "meta_mean_motion_dot": 0.00013687,
        "meta_mean_motion_ddot": 0,
        "tle_line1": "1 38208U 93036BSY 25350.00948753  .00013687  00000+0  16437-2 0  9990",
        "tle_line2": "2 38208  74.0064  72.4172 0001736 150.2716  26.1687 14.84023361712075"
      },
      "geometry": {
        "type": "Point",
        "coordinates": [
          -92.20658891757542,
          -53.748588019610565
        ]
      }
    },
    {
      "type": "Feature",
      "properties": {
        "norad_id": 38212,
        "name": "COSMOS 2251 DEB",
        "group": "cosmos-2251-debris",
        "lat": 23.324360176268957,
        "lon": 69.71327367971449,
        "alt_km": 649.8330620983415,
        "timestamp": "2025-12-19T20:43:00.484065+00:00",
        "meta_object_name": "COSMOS 2251 DEB",
        "meta_object_id": "1993-036BTC",
        "meta_epoch": "2025-12-19T04:21:29.490912",
        "meta_mean_motion": 14.77722254,
        "meta_eccentricity": 0.0092064,
        "meta_inclination": 74.0528,
        "meta_ra_of_asc_node": 63.9673,
        "meta_arg_of_pericenter": 129.0689,
        "meta_mean_anomaly": 231.8724,
        "meta_ephemeris_type": 0,
        "meta_classification_type": "U",
        "meta_norad_cat_id": 38212,
        "meta_element_set_no": 999,
        "meta_rev_at_epoch": 81405,
        "meta_bstar": 0.00027193732,
        "meta_mean_motion_dot": 2.056e-05,
        "meta_mean_motion_ddot": 0,
        "tle_line1": "1 38212U 93036BTC 25353.18159133  .00002056  00000+0  27194-3 0  9994",
        "tle_line2": "2 38212  74.0528  63.9673 0092064 129.0689 231.8724 14.77722254814050"
      },
      "geometry": {
        "type": "Point",
        "coordinates": [
          69.71327367971449,
          23.324360176268957
        ]
      }
    },
    {
      "type": "Feature",
      "properties": {
        "norad_id": 38220,
        "name": "COSMOS 2251 DEB",
        "group": "cosmos-2251-debris",
        "lat": -28.538543659251097,
        "lon": -117.07725316057206,
        "alt_km": 596.746621449407,
        "timestamp": "2025-12-19T20:43:00.484076+00:00",
        "meta_object_name": "COSMOS 2251 DEB",
        "meta_object_id": "1993-036BTL",
        "meta_epoch": "2025-12-17T11:30:14.878368",
        "meta_mean_motion": 14.9320096,
        "meta_eccentricity": 0.00051577,
        "meta_inclination": 74.0158,
        "meta_ra_of_asc_node": 58.7526,
        "meta_arg_of_pericenter": 31.4503,
        "meta_mean_anomaly": 328.6988,
        "meta_ephemeris_type": 0,
        "meta_classification_type": "U",
        "meta_norad_cat_id": 38220,
        "meta_element_set_no": 999,
        "meta_rev_at_epoch": 71441,
        "meta_bstar": 0.0021815417,
        "meta_mean_motion_dot": 0.00022841,
        "meta_mean_motion_ddot": 0,
        "tle_line1": "1 38220U 93036BTL 25351.47933887  .00022841  00000+0  21815-2 0  9996",
        "tle_line2": "2 38220  74.0158  58.7526 0005157  31.4503 328.6988 14.93200960714414"
      },
      "geometry": {
        "type": "Point",
        "coordinates": [
          -117.07725316057206,
          -28.538543659251097
        ]
      }
    },
    {
      "type": "Feature",
      "properties": {
        "norad_id": 38479,
        "name": "COSMOS 2251 DEB",
        "group": "cosmos-2251-debris",
        "lat": 15.28600919089954,
        "lon": 175.62930771633805,
        "alt_km": 771.59598073304,
        "timestamp": "2025-12-19T20:43:00.484086+00:00",
        "meta_object_name": "COSMOS 2251 DEB",
        "meta_object_id": "1993-036BTP",
        "meta_epoch": "2025-12-13T19:29:32.997408",
        "meta_mean_motion": 14.3831318,
        "meta_eccentricity": 0.0084157,
        "meta_inclination": 74.007,
        "meta_ra_of_asc_node": 182.3013,
        "meta_arg_of_pericenter": 291.0961,
        "meta_mean_anomaly": 83.9532,
        "meta_ephemeris_type": 0,
        "meta_classification_type": "U",
        "meta_norad_cat_id": 38479,
        "meta_element_set_no": 999,
        "meta_rev_at_epoch": 64703,
        "meta_bstar": 0.0021939338,
        "meta_mean_motion_dot": 6.938e-05,
        "meta_mean_motion_ddot": 0,
        "tle_line1": "1 38479U 93036BTP 25347.81218747  .00006938  00000+0  21939-2 0  9992",
        "tle_line2": "2 38479  74.0070 182.3013 0084157 291.0961  83.9532 14.38313180647034"
      },
      "geometry": {
        "type": "Point",
        "coordinates": [
          175.62930771633805,
          15.28600919089954
        ]
      }
    },
    {
      "type": "Feature",
      "properties": {
        "norad_id": 38481,
        "name": "COSMOS 2251 DEB",
        "group": "cosmos-2251-debris",
        "lat": -58.5033641278932,
        "lon": -156.69608196973977,
        "alt_km": 809.7785600304796,
        "timestamp": "2025-12-19T20:43:00.484097+00:00",
        "meta_object_name": "COSMOS 2251 DEB",
        "meta_object_id": "1993-036BTR",
        "meta_epoch": "2025-12-17T17:37:11.726400",
        "meta_mean_motion": 13.94852214,
        "meta_eccentricity": 0.02348213,
        "meta_inclination": 73.9324,
        "meta_ra_of_asc_node": 358.9239,
        "meta_arg_of_pericenter": 298.2644,
        "meta_mean_anomaly": 59.4964,
        "meta_ephemeris_type": 0,
        "meta_classification_type": "U",
        "meta_norad_cat_id": 38481,
        "meta_element_set_no": 999,
        "meta_rev_at_epoch": 59130,
        "meta_bstar": 0.0012605173,
        "meta_mean_motion_dot": 2.103e-05,
        "meta_mean_motion_ddot": 0,
        "tle_line1": "1 38481U 93036BTR 25351.73416350  .00002103  00000+0  12605-2 0  9991",
        "tle_line2": "2 38481  73.9324 358.9239 0234821 298.2644  59.4964 13.94852214591302"
      },
      "geometry": {
        "type": "Point",
        "coordinates": [
          -156.69608196973977,
          -58.5033641278932
        ]
      }
    },
    {
      "type": "Feature",
      "properties": {
        "norad_id": 38483,
        "name": "COSMOS 2251 DEB",
        "group": "cosmos-2251-debris",
        "lat": 40.179359032374286,
        "lon": 165.22564846164693,
        "alt_km": 727.1447939387544,
        "timestamp": "2025-12-19T20:43:00.484107+00:00",
        "meta_object_name": "COSMOS 2251 DEB",
        "meta_object_id": "1993-036BTT",
        "meta_epoch": "2025-12-12T08:16:48.530496",
        "meta_mean_motion": 14.28787654,
        "meta_eccentricity": 0.01107994,
        "meta_inclination": 74.262,
        "meta_ra_of_asc_node": 12.4521,
        "meta_arg_of_pericenter": 118.0167,
        "meta_mean_anomaly": 243.2246,
        "meta_ephemeris_type": 0,
        "meta_classification_type": "U",
        "meta_norad_cat_id": 38483,
        "meta_element_set_no": 999,
        "meta_rev_at_epoch": 63472,
        "meta_bstar": 0.0012977102,
        "meta_mean_motion_dot": 3.471e-05,
        "meta_mean_motion_ddot": 0,
        "tle_line1": "1 38483U 93036BTT 25346.34500614  .00003471  00000+0  12977-2 0  9992",
        "tle_line2": "2 38483  74.2620  12.4521 0110799 118.0167 243.2246 14.28787654634722"
      },
      "geometry": {
        "type": "Point",
        "coordinates": [
          165.22564846164693,
          40.179359032374286
        ]
      }
    },
    {
      "type": "Feature",
      "properties": {
        "norad_id": 38486,
        "name": "COSMOS 2251 DEB",
        "group": "cosmos-2251-debris",
        "lat": 0.634304969767285,
        "lon": 10.712178799573174,
        "alt_km": 671.9883070953938,
        "timestamp": "2025-12-19T20:43:00.484117+00:00",
        "meta_object_name": "COSMOS 2251 DEB",
        "meta_object_id": "1993-036BTW",
        "meta_epoch": "2025-12-16T20:16:12.499104",
        "meta_mean_motion": 14.73366046,
        "meta_eccentricity": 0.00303976,
        "meta_inclination": 73.9413,
        "meta_ra_of_asc_node": 196.8105,
        "meta_arg_of_pericenter": 340.5168,
        "meta_mean_anomaly": 34.0397,
        "meta_ephemeris_type": 0,
        "meta_classification_type": "U",
        "meta_norad_cat_id": 38486,
        "meta_element_set_no": 999,
        "meta_rev_at_epoch": 75495,
        "meta_bstar": 0.0017008864,
        "meta_mean_motion_dot": 0.00011084,
        "meta_mean_motion_ddot": 0,
        "tle_line1": "1 38486U 93036BTW 25350.84458911  .00011084  00000+0  17009-2 0  9997",
        "tle_line2": "2 38486  73.9413 196.8105 0030397 340.5168  34.0397 14.73366046754953"
      },
      "geometry": {
        "type": "Point",
        "coordinates": [
          10.712178799573174,
          0.634304969767285
        ]
      }
    }
  ]
}